[{"OBJECT_NAME":"HULIANWANG DIGUI-86","OBJECT_ID":"2025-220E","EPOCH":"2026-03-09T22:32:53.606976","MEAN_MOTION":13.24421097,"ECCENTRICITY":0.0002281,"INCLINATION":86.4898,"RA_OF_ASC_NODE":77.3537,"ARG_OF_PERICENTER":97.0407,"MEAN_ANOMALY":263.0987,"EPHEMERIS_TYPE":0,"CLASSIFICATION_TYPE":"U","NORAD_CAT_ID":65821,"ELEMENT_SET_NO":999,"REV_AT_EPOCH":2178,"BSTAR":2.5612025e-5,"MEAN_MOTION_DOT":2.6e-7,"MEAN_MOTION_DDOT":0},{"OBJECT_NAME":"COSMOS 1067","OBJECT_ID":"1978-122A","EPOCH":"2026-03-09T20:01:41.619072","MEAN_MOTION":13.20232217,"ECCENTRICITY":0.00371434,"INCLINATION":82.9681,"RA_OF_ASC_NODE":281.3369,"ARG_OF_PERICENTER":77.9252,"MEAN_ANOMALY":293.5912,"EPHEMERIS_TYPE":0,"CLASSIFICATION_TYPE":"U","NORAD_CAT_ID":11168,"ELEMENT_SET_NO":999,"REV_AT_EPOCH":25799,"BSTAR":4.3367851e-5,"MEAN_MOTION_DOT":3.1e-7,"MEAN_MOTION_DDOT":0}]
